{"type": "FeatureCollection", "features": [ {"type": "Feature", "properties": {"norad_id": 52912, "name": "GAOFEN-12 03", "group": "resource", "lat": -46.25268365576247, "lon": -112.58240541156886, "alt_km": 637.5992372362825, "timestamp": "2025-12-17T21:39:45.366482+00:00", "meta": {"OBJECT_NAME": "GAOFEN-12 03", "OBJECT_ID": "2022-069A", "EPOCH": "2025-12-17T15:22:54.161760", "MEAN_MOTION": 14.79619329, "ECCENTRICITY": 0.00020782, "INCLINATION": 97.8486, "RA_OF_ASC_NODE": 238.8764, "ARG_OF_PERICENTER": 55.3008, "MEAN_ANOMALY": 304.84, "EPHEMERIS_TYPE": 0, "CLASSIFICATION_TYPE": "U", "NORAD_CAT_ID": 52912, "ELEMENT_SET_NO": 999, "REV_AT_EPOCH": 18776, "BSTAR": 8.5321309e-05, "MEAN_MOTION_DOT": 5.89e-06, "MEAN_MOTION_DDOT": 0}, "tle": {"line1": "1 52912U 22069A   25351.64090465  .00000589  00000+0  85321-4 0  9992", "line2": "2 52912  97.8486 238.8764 0002078  55.3008 304.8400 14.79619329187768"}}, "geometry": {"type": "Point", "coordinates": [-112.58240541156886, -46.25268365576247]}}, {"type": "Feature", "properties": {"norad_id": 54754, "name": "SWOT", "group": "resource", "lat": -71.74939913690241, "lon": 141.8225648948317, "alt_km": 900.5899960929437, "timestamp": "2025-12-17T21:39:45.366491+00:00", "meta": {"OBJECT_NAME": "SWOT", "OBJECT_ID": "2022-173A", "EPOCH": "2025-12-17T13:34:54.585984", "MEAN_MOTION": 14.00167612, "ECCENTRICITY": 3.685e-05, "INCLINATION": 77.6107, "RA_OF_ASC_NODE": 280.4749, "ARG_OF_PERICENTER": 99.6214, "MEAN_ANOMALY": 260.4979, "EPHEMERIS_TYPE": 0, "CLASSIFICATION_TYPE": "U", "NORAD_CAT_ID": 54754, "ELEMENT_SET_NO": 999, "REV_AT_EPOCH": 15373, "BSTAR": 6.1360205e-05, "MEAN_MOTION_DOT": 8.8e-07, "MEAN_MOTION_DDOT": 0}, "tle": {"line1": "1 54754U 22173A   25351.56590956  .00000088  00000+0  61360-4 0  9996", "line2": "2 54754  77.6107 280.4749 0000368  99.6214 260.4979 14.00167612153731"}}, "geometry": {"type": "Point", "coordinates": [141.8225648948317, -71.74939913690241]}}, {"type": "Feature", "properties": {"norad_id": 57654, "name": "GAOFEN-12 04", "group": "resource", "lat": 54.50451782724713, "lon": 98.82680675177191, "alt_km": 624.5135416428975, "timestamp": "2025-12-17T21:39:45.366500+00:00", "meta": {"OBJECT_NAME": "GAOFEN-12 04", "OBJECT_ID": "2023-123A", "EPOCH": "2025-12-17T16:13:57.178272", "MEAN_MOTION": 14.79714327, "ECCENTRICITY": 0.00012542, "INCLINATION": 97.9125, "RA_OF_ASC_NODE": 267.3586, "ARG_OF_PERICENTER": 75.0567, "MEAN_ANOMALY": 285.0783, "EPHEMERIS_TYPE": 0, "CLASSIFICATION_TYPE": "U", "NORAD_CAT_ID": 57654, "ELEMENT_SET_NO": 999, "REV_AT_EPOCH": 12578, "BSTAR": 0.00015217545, "MEAN_MOTION_DOT": 1.092e-05, "MEAN_MOTION_DDOT": 0}, "tle": {"line1": "1 57654U 23123A   25351.67635623  .00001092  00000+0  15218-3 0  9993", "line2": "2 57654  97.9125 267.3586 0001254  75.0567 285.0783 14.79714327125782"}}, "geometry": {"type": "Point", "coordinates": [98.82680675177191, 54.50451782724713]}}, {"type": "Feature", "properties": {"norad_id": 59065, "name": "PARS 1", "group": "resource", "lat": -38.992143152047085, "lon": 136.85326143408474, "alt_km": 457.4319253619824, "timestamp": "2025-12-17T21:39:45.366509+00:00", "meta": {"OBJECT_NAME": "PARS 1", "OBJECT_ID": "2024-039Q", "EPOCH": "2025-12-17T14:28:52.222080", "MEAN_MOTION": 15.4108396, "ECCENTRICITY": 0.00122672, "INCLINATION": 97.4632, "RA_OF_ASC_NODE": 322.6397, "ARG_OF_PERICENTER": 57.6454, "MEAN_ANOMALY": 302.5979, "EPHEMERIS_TYPE": 0, "CLASSIFICATION_TYPE": "U", "NORAD_CAT_ID": 59065, "ELEMENT_SET_NO": 999, "REV_AT_EPOCH": 10063, "BSTAR": 0.00024199091, "MEAN_MOTION_DOT": 9.945e-05, "MEAN_MOTION_DDOT": 0}, "tle": {"line1": "1 59065U 24039Q   25351.60338220  .00009945  00000+0  24199-3 0  9997", "line2": "2 59065  97.4632 322.6397 0012267  57.6454 302.5979 15.41083960100631"}}, "geometry": {"type": "Point", "coordinates": [136.85326143408474, -38.992143152047085]}}, {"type": "Feature", "properties": {"norad_id": 59371, "name": "RESURS-P 4", "group": "resource", "lat": -15.52459230239408, "lon": 116.09867548589948, "alt_km": 474.95891649773876, "timestamp": "2025-12-17T21:39:45.366518+00:00", "meta": {"OBJECT_NAME": "RESURS-P 4", "OBJECT_ID": "2024-061A", "EPOCH": "2025-12-17T14:32:31.219296", "MEAN_MOTION": 15.32124012, "ECCENTRICITY": 0.00011646, "INCLINATION": 97.2548, "RA_OF_ASC_NODE": 297.836, "ARG_OF_PERICENTER": 57.2685, "MEAN_ANOMALY": 302.8669, "EPHEMERIS_TYPE": 0, "CLASSIFICATION_TYPE": "U", "NORAD_CAT_ID": 59371, "ELEMENT_SET_NO": 999, "REV_AT_EPOCH": 9595, "BSTAR": 0.00011076894, "MEAN_MOTION_DOT": 3.359e-05, "MEAN_MOTION_DDOT": 0}, "tle": {"line1": "1 59371U 24061A   25351.60591689  .00003359  00000+0  11077-3 0  9996", "line2": "2 59371  97.2548 297.8360 0001164  57.2685 302.8669 15.32124012 95955"}}, "geometry": {"type": "Point", "coordinates": [116.09867548589948, -15.52459230239408]}}, {"type": "Feature", "properties": {"norad_id": 59625, "name": "LEGION 1", "group": "resource", "lat": 48.214477795609845, "lon": -105.00027784567763, "alt_km": 514.5323256765305, "timestamp": "2025-12-17T21:39:45.366527+00:00", "meta": {"OBJECT_NAME": "LEGION 1", "OBJECT_ID": "2024-081A", "EPOCH": "2025-12-17T11:35:04.618176", "MEAN_MOTION": 15.16527204, "ECCENTRICITY": 0.00037255, "INCLINATION": 97.5215, "RA_OF_ASC_NODE": 66.081, "ARG_OF_PERICENTER": 296.3296, "MEAN_ANOMALY": 63.7554, "EPHEMERIS_TYPE": 0, "CLASSIFICATION_TYPE": "U", "NORAD_CAT_ID": 59625, "ELEMENT_SET_NO": 999, "REV_AT_EPOCH": 8999, "BSTAR": 0.00021953602, "MEAN_MOTION_DOT": 4.213e-05, "MEAN_MOTION_DDOT": 0}, "tle": {"line1": "1 59625U 24081A   25351.48269234  .00004213  00000+0  21954-3 0  9999", "line2": "2 59625  97.5215  66.0810 0003725 296.3296  63.7554 15.16527204 89991"}}, "geometry": {"type": "Point", "coordinates": [-105.00027784567763, 48.214477795609845]}}, {"type": "Feature", "properties": {"norad_id": 59626, "name": "LEGION 2", "group": "resource", "lat": -48.323192643103624, "lon": 75.12033544093902, "alt_km": 520.2055347764426, "timestamp": "2025-12-17T21:39:45.366536+00:00", "meta": {"OBJECT_NAME": "LEGION 2", "OBJECT_ID": "2024-081B", "EPOCH": "2025-12-17T13:57:35.715168", "MEAN_MOTION": 15.16539901, "ECCENTRICITY": 0.0005623, "INCLINATION": 97.5218, "RA_OF_ASC_NODE": 66.2666, "ARG_OF_PERICENTER": 272.6912, "MEAN_ANOMALY": 87.3677, "EPHEMERIS_TYPE": 0, "CLASSIFICATION_TYPE": "U", "NORAD_CAT_ID": 59626, "ELEMENT_SET_NO": 999, "REV_AT_EPOCH": 9001, "BSTAR": 0.00019932134, "MEAN_MOTION_DOT": 3.821e-05, "MEAN_MOTION_DDOT": 0}, "tle": {"line1": "1 59626U 24081B   25351.58166337  .00003821  00000+0  19932-3 0  9998", "line2": "2 59626  97.5218  66.2666 0005623 272.6912  87.3677 15.16539901 90017"}}, "geometry": {"type": "Point", "coordinates": [75.12033544093902, -48.323192643103624]}}, {"type": "Feature", "properties": {"norad_id": 60182, "name": "ALOS-4 (DAICHI-4)", "group": "resource", "lat": 0.7452749859727074, "lon": 86.57225433709387, "alt_km": 633.9723971037884, "timestamp": "2025-12-17T21:39:45.366545+00:00", "meta": {"OBJECT_NAME": "ALOS-4 (DAICHI-4)", "OBJECT_ID": "2024-123A", "EPOCH": "2025-12-16T22:56:04.911360", "MEAN_MOTION": 14.79477844, "ECCENTRICITY": 0.00013999, "INCLINATION": 97.9225, "RA_OF_ASC_NODE": 85.7427, "ARG_OF_PERICENTER": 99.1223, "MEAN_ANOMALY": 261.0147, "EPHEMERIS_TYPE": 0, "CLASSIFICATION_TYPE": "U", "NORAD_CAT_ID": 60182, "ELEMENT_SET_NO": 999, "REV_AT_EPOCH": 7893, "BSTAR": 0.00025137573, "MEAN_MOTION_DOT": 1.827e-05, "MEAN_MOTION_DDOT": 0}, "tle": {"line1": "1 60182U 24123A   25350.95561240  .00001827  00000+0  25138-3 0  9995", "line2": "2 60182  97.9225  85.7427 0001399  99.1223 261.0147 14.79477844 78937"}}, "geometry": {"type": "Point", "coordinates": [86.57225433709387, 0.7452749859727074]}}, {"type": "Feature", "properties": {"norad_id": 60452, "name": "LEGION 3", "group": "resource", "lat": 22.741427156532822, "lon": -52.74995033042431, "alt_km": 525.4554796646526, "timestamp": "2025-12-17T21:39:45.366554+00:00", "meta": {"OBJECT_NAME": "LEGION 3", "OBJECT_ID": "2024-146A", "EPOCH": "2025-12-17T07:16:54.208416", "MEAN_MOTION": 15.15811136, "ECCENTRICITY": 0.00154011, "INCLINATION": 45.0024, "RA_OF_ASC_NODE": 285.6664, "ARG_OF_PERICENTER": 223.3718, "MEAN_ANOMALY": 136.595, "EPHEMERIS_TYPE": 0, "CLASSIFICATION_TYPE": "U", "NORAD_CAT_ID": 60452, "ELEMENT_SET_NO": 999, "REV_AT_EPOCH": 7442, "BSTAR": 0.0002295067, "MEAN_MOTION_DOT": 4.207e-05, "MEAN_MOTION_DDOT": 0}, "tle": {"line1": "1 60452U 24146A   25351.30340519  .00004207  00000+0  22951-3 0  9999", "line2": "2 60452  45.0024 285.6664 0015401 223.3718 136.5950 15.15811136 74426"}}, "geometry": {"type": "Point", "coordinates": [-52.74995033042431, 22.741427156532822]}}, {"type": "Feature", "properties": {"norad_id": 60453, "name": "LEGION 4", "group": "resource", "lat": 21.430861843866854, "lon": 37.31459463264326, "alt_km": 511.40207685680343, "timestamp": "2025-12-17T21:39:45.366564+00:00", "meta": {"OBJECT_NAME": "LEGION 4", "OBJECT_ID": "2024-146B", "EPOCH": "2025-12-17T13:37:05.597760", "MEAN_MOTION": 15.15875654, "ECCENTRICITY": 0.00090409, "INCLINATION": 45.0398, "RA_OF_ASC_NODE": 16.0172, "ARG_OF_PERICENTER": 336.2934, "MEAN_ANOMALY": 23.7528, "EPHEMERIS_TYPE": 0, "CLASSIFICATION_TYPE": "U", "NORAD_CAT_ID": 60453, "ELEMENT_SET_NO": 999, "REV_AT_EPOCH": 7331, "BSTAR": 0.00021226004, "MEAN_MOTION_DOT": 3.871e-05, "MEAN_MOTION_DDOT": 0}, "tle": {"line1": "1 60453U 24146B   25351.56742590  .00003871  00000+0  21226-3 0  9993", "line2": "2 60453  45.0398  16.0172 0009040 336.2934  23.7528 15.15875654 73317"}}, "geometry": {"type": "Point", "coordinates": [37.31459463264326, 21.430861843866854]}}]}